[{"OBJECT_NAME":"CAPELLA-13 (ACADIA-3)","OBJECT_ID":"2024-142A","EPOCH":"2026-03-09T16:01:17.787936","MEAN_MOTION":14.87660611,"ECCENTRICITY":0.00013048,"INCLINATION":53.0039,"RA_OF_ASC_NODE":131.9705,"ARG_OF_PERICENTER":85.3202,"MEAN_ANOMALY":274.7927,"EPHEMERIS_TYPE":0,"CLASSIFICATION_TYPE":"U","NORAD_CAT_ID":60419,"ELEMENT_SET_NO":999,"REV_AT_EPOCH":8559,"BSTAR":0.0003793232,"MEAN_MOTION_DOT":3.25e-5,"MEAN_MOTION_DDOT":0},{"OBJECT_NAME":"CZ-6A DEB","OBJECT_ID":"2022-151AM","EPOCH":"2026-03-09T19:08:00.092256","MEAN_MOTION":14.7152989,"ECCENTRICITY":0.01168946,"INCLINATION":98.7476,"RA_OF_ASC_NODE":167.8394,"ARG_OF_PERICENTER":167.6861,"MEAN_ANOMALY":192.7245,"EPHEMERIS_TYPE":0,"CLASSIFICATION_TYPE":"U","NORAD_CAT_ID":54294,"ELEMENT_SET_NO":999,"REV_AT_EPOCH":17641,"BSTAR":0.0014817554,"MEAN_MOTION_DOT":0.0001019,"MEAN_MOTION_DDOT":0}]
